OBJECT_NAME,OBJECT_ID,EPOCH,MEAN_MOTION,ECCENTRICITY,INCLINATION,RA_OF_ASC_NODE,ARG_OF_PERICENTER,MEAN_ANOMALY,EPHEMERIS_TYPE,CLASSIFICATION_TYPE,NORAD_CAT_ID,ELEMENT_SET_NO,REV_AT_EPOCH,BSTAR,MEAN_MOTION_DOT,MEAN_MOTION_DDOT
EYESAT A (AO-27),1993-061C,2026-07-09T03:58:35.219424,14.30948062,.00090814,98.6870,257.5702,42.3993,317.7889,0,U,22825,999,71014,.33846407E-4,.44E-6,0
ITAMSAT (IO-26),1993-061D,2026-07-09T03:19:29.664192,14.31375523,.00093147,98.6818,257.4628,26.5022,333.6635,0,U,22826,999,71045,.31710822E-4,.39E-6,0
RADIO ROSTO (RS15),1994-085A,2026-07-09T04:47:22.371072,11.27583504,.01566966,64.8162,267.6172,359.8125,0.2717,0,U,23439,999,29838,.15601949E-3,-.37E-6,0
JAS-2 (FO-29),1996-046B,2026-07-09T01:08:21.204960,13.53275148,.0350601,98.5224,35.9232,39.8653,322.7685,0,U,24278,999,47612,.35079079E-4,.1E-7,0
FORTE,1997-047A,2026-07-08T19:26:27.817152,14.27953747,.00244889,69.9546,325.1792,251.2143,108.6323,0,U,24920,999,50177,.69989927E-4,.116E-5,0
TECHSAT 1B (GO-32),1998-043D,2026-07-08T21:50:18.087648,14.24432499,.00020151,99.0079,183.2175,124.8391,235.2977,0,U,25397,999,45442,.35510423E-4,.35E-6,0
ISS (ZARYA),1998-067A,2026-07-09T02:54:39.810240,15.48953098,.00066703,51.6303,191.5347,273.7232,86.2993,0,U,25544,999,57515,.10961171E-3,.5585E-4,0
IMAGE,2000-017A,2026-07-06T05:56:59.074080,1.68666489,.74188478,94.2437,315.6222,285.6487,9.6557,0,U,26113,999,16182,0,-.11E-6,0
CLUSTER II-FM7 (SAMBA),2000-041A,2026-07-09T10:47:07.794528,0.44874124,.90815626,149.8605,54.9301,272.3489,359.6364,0,U,26410,999,2041,0,.10356E-3,0
CLUSTER II-FM8 (TANGO),2000-045B,2026-07-07T16:46:52.732416,0.44419476,.90843277,150.0768,55.7803,273.0277,2.3481,0,U,26464,999,2040,0,.817E-4,0
ODIN,2001-007A,2026-07-09T01:36:31.230432,15.86075988,.00050447,97.3749,232.5556,142.3922,217.7703,0,U,26702,999,39285,.10279605E-2,.25951E-2,0
OMNI-M1,2001-026A,2026-07-02T00:09:17.717184,3.92402003,.00137998,44.8270,241.8483,56.1769,304.0224,0,U,26857,999,20615,0,.7E-7,0
PCSAT (NO-44),2001-043C,2026-07-08T11:05:25.916928,14.31963214,.00059773,67.0487,189.2445,266.0895,93.9524,0,U,26931,999,29349,.5564841E-4,.66E-6,0
PROBA-1,2001-049B,2026-07-09T07:20:15.512640,15.07597828,.00559554,97.9603,199.6108,49.0852,311.5201,0,U,26958,999,34695,.16426373E-3,.2518E-4,0
SAUDISAT 1C (SO-50),2002-058C,2026-07-09T01:41:29.154048,14.83090961,.0074702,64.5518,61.2774,258.4036,100.8678,0,U,27607,999,26770,.80073889E-4,.528E-5,0
CORIOLIS,2003-001A,2026-07-08T23:18:01.069344,14.19950561,.0014681,98.7131,196.5232,146.2477,213.9637,0,U,27640,999,21731,.50119132E-4,.63E-6,0
CUTE-1 (CO-55),2003-031E,2026-07-08T22:54:25.227360,14.24348882,.00106848,98.6739,198.2397,118.8005,241.4249,0,U,27844,999,19477,.10410026E-3,.197E-5,0
CUBESAT XI-IV (CO-57),2003-031J,2026-07-08T11:05:05.892000,14.23632050,.00102587,98.6772,197.4488,137.0463,223.1519,0,U,27848,999,19440,.99678022E-4,.184E-5,0
MOZHAETS 4 (RS22),2003-042A,2026-07-09T08:39:27.080640,14.73506027,.00107959,98.3481,15.3468,192.0332,287.3631,0,U,27939,999,21881,.40196347E-4,.207E-5,0
